[{"OBJECT_NAME":"STARLINK-32515","OBJECT_ID":"2024-195U","EPOCH":"2026-03-09T12:49:52.666176","MEAN_MOTION":15.30171928,"ECCENTRICITY":0.00013219,"INCLINATION":53.1606,"RA_OF_ASC_NODE":156.3738,"ARG_OF_PERICENTER":84.4033,"MEAN_ANOMALY":275.7118,"EPHEMERIS_TYPE":0,"CLASSIFICATION_TYPE":"U","NORAD_CAT_ID":61705,"ELEMENT_SET_NO":999,"REV_AT_EPOCH":7715,"BSTAR":-1.5743747e-5,"MEAN_MOTION_DOT":-8.25e-6,"MEAN_MOTION_DDOT":0},{"OBJECT_NAME":"CZ-6A DEB","OBJECT_ID":"2022-151QV","EPOCH":"2026-03-09T04:36:08.895168","MEAN_MOTION":15.24642942,"ECCENTRICITY":0.00273347,"INCLINATION":98.639,"RA_OF_ASC_NODE":154.2763,"ARG_OF_PERICENTER":174.5721,"MEAN_ANOMALY":185.5815,"EPHEMERIS_TYPE":0,"CLASSIFICATION_TYPE":"U","NORAD_CAT_ID":54908,"ELEMENT_SET_NO":999,"REV_AT_EPOCH":17373,"BSTAR":0.0098290719,"MEAN_MOTION_DOT":0.00253193,"MEAN_MOTION_DDOT":0}]
